TRANSPORTER-12 OBJECT BT
1 62674U 25009BT  26068.71416991  .00013824  00000+0  51029-3 0  9998
2 62674  97.4094 151.5992 0003682 313.5044  46.5889 15.27872239121360
STARLINK-34147          
1 63965U 25099P   26068.33119699  .00023714  00000+0  86847-3 0  9999
2 63965  42.9932 178.0506 0000513 188.6290 171.4553 15.27580679 47287
