[{"OBJECT_NAME":"TRANSPORTER-12 OBJECT BT","OBJECT_ID":"2025-009BT","EPOCH":"2026-03-09T17:08:24.281088","MEAN_MOTION":15.27872239,"ECCENTRICITY":0.00036816,"INCLINATION":97.4094,"RA_OF_ASC_NODE":151.5992,"ARG_OF_PERICENTER":313.5044,"MEAN_ANOMALY":46.5889,"EPHEMERIS_TYPE":0,"CLASSIFICATION_TYPE":"U","NORAD_CAT_ID":62674,"ELEMENT_SET_NO":999,"REV_AT_EPOCH":12136,"BSTAR":0.000510288,"MEAN_MOTION_DOT":0.00013824,"MEAN_MOTION_DDOT":0},{"OBJECT_NAME":"STARLINK-34147","OBJECT_ID":"2025-099P","EPOCH":"2026-03-09T07:56:55.419936","MEAN_MOTION":15.27580679,"ECCENTRICITY":5.134e-5,"INCLINATION":42.9932,"RA_OF_ASC_NODE":178.0506,"ARG_OF_PERICENTER":188.629,"MEAN_ANOMALY":171.4553,"EPHEMERIS_TYPE":0,"CLASSIFICATION_TYPE":"U","NORAD_CAT_ID":63965,"ELEMENT_SET_NO":999,"REV_AT_EPOCH":4728,"BSTAR":0.0008684725,"MEAN_MOTION_DOT":0.00023714,"MEAN_MOTION_DDOT":0}]
